OBJECT_NAME,OBJECT_ID,EPOCH,MEAN_MOTION,ECCENTRICITY,INCLINATION,RA_OF_ASC_NODE,ARG_OF_PERICENTER,MEAN_ANOMALY,EPHEMERIS_TYPE,CLASSIFICATION_TYPE,NORAD_CAT_ID,ELEMENT_SET_NO,REV_AT_EPOCH,BSTAR,MEAN_MOTION_DOT,MEAN_MOTION_DDOT,SEMIMAJOR_AXIS,SATELLITE_TYPE
SONATE-2,2024-043Q,2024-12-31T14:08:32.929728,15.27610234,0.0012171,97.4962,129.7349,325.6266,34.4184,0,U,59112,999,4584,0.0010983,0.00029721,0.0,6861.095566060175,Amateur Radio
MESAT1,2024-125G,2024-12-31T19:53:08.772000,15.27772219,0.0022799,97.2957,214.9372,352.6491,7.4411,0,U,60209,999,2749,0.0012693,0.00034743,0.0,6860.610583551222,Amateur Radio
OOV-CUBE (TUBSAT-30),2024-128F,2024-12-31T18:07:06.476448,14.98608346,0.0031891,61.9981,276.8257,14.7576,345.4436,0,U,60240,999,2619,0.00070944,8.451e-05,0.0,6949.332262131992,Amateur Radio
COLIBRI-S (RS67S),2024-199M,2025-01-01T02:49:36.599808,15.26262952,0.0015442,97.3797,231.1604,35.0771,325.1482,0,U,61746,999,5571,0.0011713,0.00030479,0.0,6865.1326472223245,Amateur Radio
HORS 3 (RS81S),2024-199U,2024-12-31T22:09:12.993984,15.26343054,0.001415,97.377,230.9447,42.7746,317.4591,0,U,61753,999,5568,0.0013001,0.00033918,0.0,6864.892458463606,Amateur Radio
HORS 4 (RS82S),2024-199V,2024-12-31T22:00:41.847264,15.26611604,0.0014352,97.377,230.9518,42.718,317.5171,0,U,61754,999,5568,0.001364,0.0003589,0.0,6864.087354785989,Amateur Radio
HORIZON (RS59S),2024-199Y,2024-12-31T21:39:21.431232,15.27243284,0.0015421,97.3798,230.9898,33.8025,326.4194,0,U,61757,999,5568,0.0016025,0.00043052,0.0,6862.19453011515,Amateur Radio
SIT-2086,2024-199AF,2025-01-01T02:13:34.064832,15.27272105,0.0012653,97.3773,231.175,43.56,316.6636,0,U,61764,999,5255,0.0013779,0.00036969,0.0,6862.108199316622,Amateur Radio
MORDOVIA-IOT (RS50S),2024-199AG,2024-12-31T22:37:39.267840,15.28318214,0.0015181,97.3796,231.0882,30.9238,329.2892,0,U,61765,999,5254,0.0018428,0.00051213,0.0,6858.976507561583,Amateur Radio
RUZAEVKA 390 (RS44S),2024-199AH,2024-12-31T21:06:45.419040,15.28118602,0.0014958,97.3795,231.0175,30.8827,329.3289,0,U,61766,999,5253,0.0017102,0.00047205,0.0,6859.573801607195,Amateur Radio
HYPERVIEW 1G (RS66S),2024-199AP,2024-12-31T22:36:21.214080,15.26133893,0.0018389,97.3769,230.9184,44.4829,315.7883,0,U,61772,999,5253,0.0014612,0.00037985,0.0,6865.519679522778,Amateur Radio
ALTAIR (RS65S),2024-199AW,2024-12-31T21:42:07.595712,15.24644622,0.0018636,97.3778,230.8202,45.8,314.4765,0,U,61779,999,5567,0.00077111,0.00019091,0.0,6869.989772801092,Amateur Radio
ASRTU-1 (AO-123),2024-199AY,2024-12-31T21:52:15.587328,15.24427321,0.001881,97.3777,230.8117,45.7649,314.5129,0,U,61781,999,5252,0.00086101,0.00021195,0.0,6870.642616948983,Amateur Radio
TUSUR GO (RS78S),2024-199AZ,2024-12-31T21:20:28.116384,15.25775977,0.001968,97.3773,230.8387,44.1552,316.1253,0,U,61782,999,5252,0.001526,0.00039282,0.0,6866.593311701805,Amateur Radio
SAMSAT-IONOSPHERE (RS75S),2024-199BB,2024-12-31T21:27:08.802432,15.25456622,0.0019419,97.3774,230.8319,44.8951,315.3853,0,U,61784,999,5567,0.0013366,0.0003404,0.0,6867.551627775444,Amateur Radio
RTU MIREA 1 (RS51S),2024-199BC,2024-12-31T21:25:10.758432,15.25534348,0.0019323,97.3773,230.834,44.394,315.8843,0,U,61785,999,5252,0.0013779,0.0003518,0.0,6867.318357882669,Amateur Radio
